IRIDIUM 63              
1 25286U 98021B   25330.19048017  .00000467  00000+0  15181-3 0  9991
2 25286  86.4000  14.1584 0002392  95.2590 264.8880 14.36717055447103
IRIDIUM 69              
1 25319U 98026A   25330.19044148  .00000677  00000+0  20374-3 0  9997
2 25319  86.3995  26.9339 0002485 155.9855 204.1461 14.41190993446396
IRIDIUM 71              
1 25320U 98026B   25330.17843889  .00000373  00000+0  10940-3 0  9997
2 25320  86.3994  21.6133 0000092 112.2349 247.8860 14.41303652446921
IRIDIUM 73              
1 25344U 98032C   25330.10114687  .00000761  00000+0  18361-3 0  9996
2 25344  86.4405 338.0624 0002544 105.8888 254.2598 14.51956135454059
IRIDIUM 82              
1 25467U 98051A   25330.13927311  .00045796  00000+0  89464-3 0  9991
2 25467  86.3625  29.4521 0065618  39.2728 321.3261 15.44890690448837
